SL-16 R/B               
1 28353U 04021B   16049.83798740 -.00000141  00000-0 -48854-4 0  9995
2 28353  71.0030  14.1980 0006847 234.0294 126.0194 14.14175882603683
CZ-2C R/B               
1 28480U 04046B   16050.24093485  .00000132  00000-0  65945-4 0  9992
2 28480  98.1675 172.1025 0141618 212.5420 206.1052 14.25571590585288
ARIANE 5 R/B            
1 28499U 04049H   16049.83162933  .00000416  00000-0  59282-4 0  9995
2 28499  98.1219 122.8960 0092204 339.3832 133.5908 14.79637521602361
CZ-2D R/B               
1 28738U 05024B   16049.10663037  .00002891  00000-0  18045-3 0  9996
2 28738  97.5582  87.8896 0011282 226.7893 133.2395 15.10247715582579
SUZAKU (ASTRO-EII)      
1 28773U 05025A   16049.78464838  .00004806  00000-0  25132-3 0  9991
2 28773  31.3819 194.4738 0004762 171.2058 188.8672 15.14317658583820
ALOS (DAICHI)           
1 28931U 06002A   16049.86927025  .00000528  00000-0  11376-3 0  9996
2 28931  97.9013  93.9815 0002250  73.6627 286.4825 14.62125381536685
H-2A R/B                
1 28932U 06002B   16050.52227383  .00001706  00000-0  16665-3 0  9997
2 28932  98.2268 307.9288 0092567  95.3436   4.3549 14.90675653545732
AKARI (ASTRO-F)         
1 28939U 06005A   16049.81396154  .00014101  00000-0  47552-3 0  9992
2 28939  98.2221 194.5776 0119115  61.6471 299.7231 15.24036306539212
RESURS-DK 1             
1 29228U 06021A   16050.56217980  .00001009  00000-0  84684-4 0  9996
2 29228  69.9356 248.2274 0004739 322.1232 102.7256 15.01786401535481
GENESIS 1               
1 29252U 06029A   16050.19777872  .00003180  00000-0  17361-3 0  9990
2 29252  64.5068  65.0234 0041396 239.5094 190.3427 15.15625811528451
CZ-4B R/B               
1 29507U 06046C   16049.99321481  .00001453  00000-0  12161-3 0  9993
2 29507  97.7820  51.2968 0037469  95.1797 265.3703 14.99537620508461
CZ-2C R/B               
1 31114U 07010B   16049.78381824  .00000043  00000-0  39432-4 0  9991
2 31114  98.4154 330.7752 0059706 180.2843 179.8310 14.19189878458814
COSMO-SKYMED 1          
1 31598U 07023A   16050.46216348  .00000165  00000-0  27274-4 0  9992
2 31598  97.8778 235.7297 0001323  88.2292 271.9102 14.82161814470794
GENESIS 2               
1 31789U 07028A   16049.59769260  .00003606  00000-0  19725-3 0  9991
2 31789  64.5061 103.2330 0052344 282.4541  77.0726 15.14868624475468
COSMOS 2428             
1 31792U 07029A   16050.40951381  .00000137  00000-0  10000-3 0  9998
2 31792  70.9559 347.2915 0010549 288.8042 185.7972 14.12430327445763
SL-16 R/B               
1 31793U 07029B   16049.21884703 -.00000229  00000-0 -94639-4 0  9994
2 31793  70.9770 327.8205 0002312 257.3763 254.8382 14.14349984446141
KORONAS-FOTON           
1 33504U 09003A   16050.20471600  .00002506  00000-0  13564-3 0  9994
2 33504  82.4447 353.6611 0019613 347.2897  12.7837 15.14052914388224
TIANGONG 1              
1 37820U 11053A   16050.52543194  .00021437  00000-0  26840-3 0  9995
2 37820  42.7622 235.1971 0011496 308.4745 154.7375 15.59277938252035
CUSAT 2 & FALCON 9 R/B  
1 39271U 13055G   16049.73472560  .00027347  00000-0  74423-3 0  9996
2 39271  80.9735 146.5640 0669375 187.1080 172.0245 14.28470188123227
